HORYU-4                 
1 41340U 16012D   21022.66365522  .00000489  00000-0  29995-4 0  9993
2 41340  31.0065  15.5909 0013884 165.1774 194.9271 15.01718110270853
E-ST@R-II               
1 41459U 16025D   21023.07199668  .00003252  00000-0  16307-3 0  9993
2 41459  98.1217 150.8947 0162714 191.9642 167.7664 15.07308544260518
AAUSAT 4                
1 41460U 16025E   21023.11534013  .00003959  00000-0  19022-3 0  9998
2 41460  98.1189 154.1268 0150345 177.8332 182.3594 15.10023792260773
BEESAT-4                
1 41619U 16040W   21023.13665971  .00001581  00000-0  66420-4 0  9995
2 41619  97.2919  83.1966 0012333 121.0465 239.1986 15.24817654242867
CANX-7                  
1 41788U 16059F   21023.21622145  .00007608  00000-0  95109-3 0  9998
2 41788  98.2570 123.2669 0024009 305.5289  54.3885 14.82423368232323
RAVAN                   
1 41849U 16067B   21022.80564720  .00001115  00000-0  97587-4 0  9993
2 41849  97.9481 142.6590 0007524 216.9976 143.0728 14.98832409229478
CELTEE 1                
1 41850U 16067C   21022.80892490  .00000666  00000-0  62617-4 0  9999
2 41850  97.9415 139.7050 0007360 230.3728 129.6845 14.97340247229325
OPTICUBE 04             
1 41851U 16067D   21023.18113345  .00000182  00000-0  21080-4 0  9999
2 41851  97.9389 139.5737 0007977 233.3537 126.6951 14.97024862229351
AEROCUBE 8D             
1 41852U 16067E   21022.86108303  .00000813  00000-0  75752-4 0  9998
2 41852  97.9397 139.1015 0008445 233.3839 126.6606 14.97080741229289
AEROCUBE 8C             
1 41853U 16067F   21022.56353770 -.00000233  00000-0 -14943-4 0  9999
2 41853  97.9393 138.6829 0008934 239.7115 120.3222 14.97046567229231
PROMETHEUS 2-1          
1 41854U 16067G   21022.81484915  .00000381  00000-0  37944-4 0  9992
2 41854  97.9413 139.4195 0008822 235.4029 124.6361 14.97465549229295
PROMETHEUS 2-3          
1 41855U 16067H   21022.81377609  .00000519  00000-0  49807-4 0  9998
2 41855  97.9416 139.4622 0008991 235.6905 124.3466 14.97479177229291
INS-1B                  
1 41954U 17008G   21022.81859502  .00001493  00000-0  61654-4 0  9997
2 41954  97.3284  89.0353 0007410 241.3117 118.7377 15.25540528218807
BGUSAT                  
1 41999U 17008BD  21023.17633694  .00002618  00000-0  96111-4 0  9994
2 41999  97.3431  94.8804 0006231 244.1775 115.8822 15.28819959218506
DIDO-2                  
1 42000U 17008BE  21023.16833244  .00001001  00000-0  42957-4 0  9994
2 42000  97.3288  89.7695 0006671 263.9095  96.1382 15.24972536218243
PEASSS                  
1 42015U 17008BV  21022.70886592  .00001270  00000-0  51722-4 0  9991
2 42015  97.3320  91.4006 0004595 266.2021  93.8693 15.26302855218781
AL-FARABI 1             
1 42016U 17008BW  21023.12174682  .00001760  00000-0  68457-4 0  9996
2 42016  97.3360  93.2542 0004413 262.2159  97.8579 15.27346084219048
NAYIF-1 (EO-88)         
1 42017U 17008BX  21022.89769691  .00001755  00000-0  68166-4 0  9991
2 42017  97.3354  93.0427 0004468 262.4465  97.6266 15.27392689219036
UCLSAT                  
1 42765U 17036A   21022.87864114  .00001438  00000-0  61742-4 0  9997
2 42765  97.2723  76.9238 0010303 340.7287  19.3560 15.24239266199990
LITUANICASAT-2          
1 42768U 17036D   21022.88058925  .00002360  00000-0  96496-4 0  9995
2 42768  97.2795  77.3201 0013010 326.6924  33.3494 15.25249387199275
AALTO-1                 
1 42775U 17036L   21022.77471186  .00000811  00000-0  38103-4 0  9999
2 42775  97.2697  73.9823 0012806 334.6789  25.3818 15.22287391199035
URSA MAIOR              
1 42776U 17036M   21022.86640902  .00000953  00000-0  43963-4 0  9991
2 42776  97.2710  74.4578 0012575 333.8819  26.1782 15.22519014199065
COMPASS 2               
1 42777U 17036N   21022.87226886  .00001819  00000-0  75928-4 0  9992
2 42777  97.2776  77.6129 0010884 329.6461  30.4145 15.24865675199220
DIAMOND RED             
1 42783U 17036U   21022.65179775  .00001041  00000-0  46563-4 0  9999
2 42783  97.2725  75.7296 0011137 344.1702  15.9185 15.23406879199113
PEGASUS                 
1 42784U 17036V   21023.14858372  .00001269  00000-0  55400-4 0  9994
2 42784  97.2728  76.7816 0010893 340.6728  19.4095 15.23868917199229
DIAMOND GREEN           
1 42785U 17036W   21022.58518779  .00001055  00000-0  47167-4 0  9990
2 42785  97.2729  75.7072 0011070 345.1130  14.9780 15.23405130199178
DIAMOND BLUE            
1 42786U 17036X   21022.64982556  .00001027  00000-0  45978-4 0  9993
2 42786  97.2727  75.7638 0010918 345.2733  14.8185 15.23405446199184
NUDTSAT                 
1 42787U 17036Y   21023.19398743  .00001969  00000-0  80396-4 0  9992
2 42787  97.2777  78.7836 0010625 336.0533  24.0209 15.25512752199185
SUCHAI                  
1 42788U 17036Z   21022.69237131  .00001422  00000-0  60526-4 0  9997
2 42788  97.2740  77.1501 0010370 340.1780  19.9053 15.24542477199271
SKCUBE                  
1 42789U 17036AA  21022.89568866  .00001426  00000-0  61100-4 0  9995
2 42789  97.2733  77.1240 0010278 340.0857  19.9978 15.24330082199212
VZLUSAT-1               
1 42790U 17036AB  21022.79237879  .00001792  00000-0  73515-4 0  9992
2 42790  97.2767  78.3828 0009569 337.0456  23.0354 15.25485419199274
ROBUSTA-1B              
1 42792U 17036AD  21022.88620680  .00001498  00000-0  63616-4 0  9994
2 42792  97.2736  77.4395 0009849 340.6313  19.4549 15.24544262199247
CICERO 6                
1 42793U 17036AE  21022.85023086  .00000943  00000-0  42186-4 0  9992
2 42793  97.2709  76.4912 0009415 345.1325  14.9634 15.23646890199260
D-SAT                   
1 42794U 17036AF  21023.04568325  .00000269  00000-0  28565-4 0  9991
2 42794  97.4739  50.5721 0125597 352.5341   7.4004 14.91430788195420
CORVUS BC2              
1 42846U 17042X   21022.92486394  .00000237  00000-0  28387-4 0  9994
2 42846  97.4941 262.1910 0008037 264.8501  95.1801 14.92215083192130
CORVUS BC1              
1 42847U 17042Y   21023.17380578 -.00000030  00000-0  22060-5 0  9995
2 42847  97.4943 262.6382 0007682 262.7212  97.3135 14.92317409192175
MIRATA                  
1 43015U 17073C   21023.14952208  .00001379  00000-0  10980-3 0  9991
2 43015  97.7134 292.9762 0252564  51.7532 310.6118 14.80223663171712
MAKERSAT 0              
1 43016U 17073D   21022.71198732  .00000883  00000-0  72450-4 0  9998
2 43016  97.7168 292.6728 0255876  54.8428 307.6468 14.79625551171620
DELLINGR (RBLE)         
1 43021U 98067NJ  21022.97054715  .00035207  00000-0  16940-3 0  9995
2 43021  51.6298 230.8521 0003148 171.6161 188.4894 15.82289168181465
AEROCUBE 7B (OCSD B)    
1 43042U 17071F   21022.82690288  .00004202  00000-0  93066-4 0  9995
2 43042  51.6376  68.4975 0004003 123.3096 236.8275 15.46087136176281
AEROCUBE 7C (OCSD C)    
1 43043U 17071G   21022.51250321  .00004468  00000-0  98718-4 0  9995
2 43043  51.6373  70.1622 0004205 126.4826 233.6549 15.45990629176207
CHEFSAT                 
1 43044U 17071H   21023.21017797  .00010357  00000-0  16618-3 0  9994
2 43044  51.6370  42.1897 0003061 127.4172 232.7097 15.53670700176642
ASGARDIA 1              
1 43049U 17071N   21022.83033167  .00003875  00000-0  86928-4 0  9994
2 43049  51.6389  67.8868 0001978 137.5276 222.5865 15.45933583176261
ISARA                   
1 43050U 17071P   21022.92619617  .00010650  00000-0  18124-3 0  9997
2 43050  51.6350  48.3624 0001322 122.1241 237.9877 15.51983682176535
PROPCUBE 2 (FAUNA)      
1 43052U 17071R   21022.80516382  .00004629  00000-0  99902-4 0  9994
2 43052  51.6379  65.4796 0001882 132.6504 227.4642 15.46598288176281
CORVUS BC3              
1 43118U 18004H   21022.92194998  .00000845  00000-0  37977-4 0  9992
2 43118  97.4211  97.1571 0010297  10.9899 349.1561 15.23843357168418
MICROMAS-2A             
1 43131U 18004W   21022.89679943  .00002116  00000-0  84137-4 0  9994
2 43131  97.4274  99.7487 0008665   8.0703 352.0673 15.26378125168555
SPACEBEE-4              
1 43139U 18004AE  21022.84774814  .00003038  00000-0  11337-3 0  9995
2 43139  97.4325 101.5000 0007829   8.6264 351.5109 15.28160652168646
SPACEBEE-3              
1 43140U 18004AF  21022.90150754  .00004007  00000-0  14283-3 0  9995
2 43140  97.4349 102.6526 0007246   5.7857 354.3466 15.29478659168713
SPACEBEE-2              
1 43141U 18004AG  21022.89451725  .00004302  00000-0  15106-3 0  9999
2 43141  97.4365 103.0679 0007128   4.5024 355.6279 15.29929832168730
SPACEBEE-1              
1 43142U 18004AH  21023.19348208  .00004443  00000-0  15337-3 0  9997
2 43142  97.4372 103.7866 0006951   2.7483 357.3795 15.30471570168797
CICERO 7                
1 43143U 18004AJ  21023.15966476  .00001932  00000-0  77198-4 0  9991
2 43143  97.4251 100.1277 0007270  19.0224 341.1284 15.26335426168619
GOMX-4B                 
1 43196U 18015E   21022.98123942  .00000562  00000-0  25599-4 0  9990
2 43196  97.4633 156.3076 0019704  55.0855 305.2230 15.24693003165341
GOMX-4A                 
1 43197U 18015F   21023.11790478  .00001021  00000-0  43625-4 0  9992
2 43197  97.4622 156.6108 0020101  55.7574 117.5748 15.25008970165383
UBAKUSAT                
1 43467U 98067NQ  20362.27906033  .06269310  12352-4  52456-3 0  9996
2 43467  51.6190 354.3668 0001241 137.3285 222.7838 16.38845679150702
TEMPEST-D               
1 43547U 98067NV  21023.13080778  .00020439  00000-0  15784-3 0  9991
2 43547  51.6346 277.9167 0006121 150.9797 209.1542 15.71888133143935
HALOSAT                 
1 43549U 98067NX  21004.26885481  .06549442  12287-4  57988-3 0  9992
2 43549  51.6198 324.6215 0004053 189.4390 170.6560 16.38331810141630
EQUISAT                 
1 43552U 98067PA  20361.21801847  .10316869  12478-4  50011-3 0  9992
2 43552  51.6122   8.3673 0000676 209.2273 150.8717 16.43170683140619
AEROCUBE 12A            
1 43556U 18046C   21022.67504571  .00001160  00000-0  50425-4 0  9992
2 43556  51.6408 131.5547 0007931   4.4473 355.6577 15.30847456140946
